ONEWEB-0363             
1 49289U 21090L   25033.01830496  .00000101  00000+0  21562-3 0  9998
2 49289  87.9269  13.9529 0001535  74.3149 285.8153 13.20769876165111
ONEWEB-0364             
1 49290U 21090M   25033.43495469  .00000443  00000+0  10587-2 0  9996
2 49290  87.9277  13.8980 0001781  84.6369 275.4967 13.20772137166295
ONEWEB-0365             
1 49291U 21090N   25033.02332271  .00000047  00000+0  83930-4 0  9997
2 49291  87.9140  44.3806 0001908  94.0279 266.1072 13.19724306161749
ONEWEB-0366             
1 49292U 21090P   25033.03758560  .00000090  00000+0  20708-3 0  9993
2 49292  87.8999  29.1612 0001720  87.8660 272.2667 13.14502199163157
ONEWEB-0367             
1 49293U 21090Q   25033.01671287 -.00000446  00000+0 -11287-2 0  9990
2 49293  87.9270  13.9482 0001792  88.4226 271.7113 13.20771086165108
ONEWEB-0368             
1 49294U 21090R   25032.45958709 -.00000256  00000+0 -66099-3 0  9996
2 49294  87.9271  14.0910 0001096 105.8087 254.3167 13.20771668164880
ONEWEB-0369             
1 49295U 21090S   25033.09440113 -.00000028  00000+0 -10310-3 0  9995
2 49295  87.9145  44.3852 0001837  93.9848 266.1494 13.19723774161746
ONEWEB-0370             
1 49296U 21090T   25033.02621605 -.00000061  00000+0 -18169-3 0  9993
2 49296  87.9272  13.9511 0002176  82.6344 277.5037 13.20771524165140
